{
    "links": {
        "self": "http://www.neowsapp.com/rest/v1/neo/3826772?api_key=iIulBulltgU6a56xZRHN4H3l9WmuAYTsLGpBGhQ2"
    },
    "id": "3826772",
    "neo_reference_id": "3826772",
    "name": "(2018 PJ21)",
    "designation": "2018 PJ21",
    "nasa_jpl_url": "http://ssd.jpl.nasa.gov/sbdb.cgi?sstr=3826772",
    "absolute_magnitude_h": 24.8,
    "estimated_diameter": {
        "kilometers": {
            "estimated_diameter_min": 0.0291443905,
            "estimated_diameter_max": 0.0651688382
        },
        "meters": {
            "estimated_diameter_min": 29.1443904535,
            "estimated_diameter_max": 65.1688382168
        },
        "miles": {
            "estimated_diameter_min": 0.018109479,
            "estimated_diameter_max": 0.0404940262
        },
        "feet": {
            "estimated_diameter_min": 95.6180819754,
            "estimated_diameter_max": 213.8085311752
        }
    },
    "is_potentially_hazardous_asteroid": false,
    "close_approach_data": [
        {
            "close_approach_date": "1939-08-25",
            "close_approach_date_full": "1939-Aug-25 08:00",
            "epoch_date_close_approach": -957888000000,
            "relative_velocity": {
                "kilometers_per_second": "5.4063613287",
                "kilometers_per_hour": "19462.900783468",
                "miles_per_hour": "12093.489656261"
            },
            "miss_distance": {
                "astronomical": "0.1946197916",
                "lunar": "75.7070989324",
                "kilometers": "29114706.283203892",
                "miles": "18091039.5917300296"
            },
            "orbiting_body": "Earth"
        },
        {
            "close_approach_date": "1995-08-26",
            "close_approach_date_full": "1995-Aug-26 23:33",
            "epoch_date_close_approach": 809479980000,
            "relative_velocity": {
                "kilometers_per_second": "6.9231809865",
                "kilometers_per_hour": "24923.4515512922",
                "miles_per_hour": "15486.4635486349"
            },
            "miss_distance": {
                "astronomical": "0.3172481442",
                "lunar": "123.4095280938",
                "kilometers": "47459646.633772854",
                "miles": "29490056.9461152252"
            },
            "orbiting_body": "Earth"
        },
        {
            "close_approach_date": "2018-08-26",
            "close_approach_date_full": "2018-Aug-26 00:27",
            "epoch_date_close_approach": 1535243220000,
            "relative_velocity": {
                "kilometers_per_second": "5.3348600228",
                "kilometers_per_hour": "19205.4960819118",
                "miles_per_hour": "11933.5483848968"
            },
            "miss_distance": {
                "astronomical": "0.1955002527",
                "lunar": "76.0495983003",
                "kilometers": "29246421.388381749",
                "miles": "18172883.5629321762"
            },
            "orbiting_body": "Earth"
        },
        {
            "close_approach_date": "2041-08-24",
            "close_approach_date_full": "2041-Aug-24 12:07",
            "epoch_date_close_approach": 2260958820000,
            "relative_velocity": {
                "kilometers_per_second": "6.3204180847",
                "kilometers_per_hour": "22753.5051050756",
                "miles_per_hour": "14138.1432137621"
            },
            "miss_distance": {
                "astronomical": "0.2905706795",
                "lunar": "113.0319943255",
                "kilometers": "43468754.737652665",
                "miles": "27010231.712890177"
            },
            "orbiting_body": "Earth"
        },
        {
            "close_approach_date": "2120-08-27",
            "close_approach_date_full": "2120-Aug-27 10:15",
            "epoch_date_close_approach": 4754196900000,
            "relative_velocity": {
                "kilometers_per_second": "5.3608187565",
                "kilometers_per_hour": "19298.9475233635",
                "miles_per_hour": "11991.6154763922"
            },
            "miss_distance": {
                "astronomical": "0.1965175642",
                "lunar": "76.4453324738",
                "kilometers": "29398609.021908254",
                "miles": "18267448.5733677452"
            },
            "orbiting_body": "Earth"
        }
    ],
    "orbital_data": {
        "orbit_id": "3",
        "orbit_determination_date": "2020-10-26 06:50:48",
        "first_observation_date": "2018-08-11",
        "last_observation_date": "2018-10-12",
        "data_arc_in_days": 62,
        "observations_used": 16,
        "orbit_uncertainty": "6",
        "minimum_orbit_intersection": ".194923",
        "jupiter_tisserand_invariant": "3.502",
        "epoch_osculation": "2459000.5",
        "eccentricity": ".4555082873360565",
        "semi_major_axis": "2.21257588080939",
        "inclination": "7.789491331988835",
        "ascending_node_longitude": "151.7621288580392",
        "orbital_period": "1202.114090274994",
        "perihelion_distance": "1.204729230740838",
        "perihelion_argument": "183.0471488340947",
        "aphelion_distance": "3.220422530877942",
        "perihelion_time": "2459560.696375678827",
        "mean_anomaly": "192.2366430309092",
        "mean_motion": ".2994724069140949",
        "equinox": "J2000",
        "orbit_class": {
            "orbit_class_type": "AMO",
            "orbit_class_description": "Near-Earth asteroid orbits similar to that of 1221 Amor",
            "orbit_class_range": "1.017 AU < q (perihelion) < 1.3 AU"
        }
    },
    "is_sentry_object": false
}